CCSDS_OMM_VERS = 2.0
CREATION_DATE  = 
ORIGINATOR     = 

OBJECT_NAME    = ATLAS CENTAUR R/B
OBJECT_ID      = 1972-065B
CENTER_NAME    = EARTH
REF_FRAME      = TEME
TIME_SYSTEM    = UTC
MEAN_ELEMENT_THEORY = SGP/SGP4

EPOCH          = 2025-11-28T06:21:36.329184
MEAN_MOTION    = 14.77349419
ECCENTRICITY   = .0034466
INCLINATION    = 34.9999
RA_OF_ASC_NODE = 179.9855
ARG_OF_PERICENTER = 237.8849
MEAN_ANOMALY   = 121.8504

EPHEMERIS_TYPE = 0
CLASSIFICATION_TYPE = U
NORAD_CAT_ID   = 6155
ELEMENT_SET_NO = 999
REV_AT_EPOCH   = 82625
BSTAR          = .16192834E-3
MEAN_MOTION_DOT = .1158E-4
MEAN_MOTION_DDOT = 0

CCSDS_OMM_VERS = 2.0
CREATION_DATE  = 
ORIGINATOR     = 

OBJECT_NAME    = SL-8 R/B
OBJECT_ID      = 1975-112B
CENTER_NAME    = EARTH
REF_FRAME      = TEME
TIME_SYSTEM    = UTC
MEAN_ELEMENT_THEORY = SGP/SGP4

EPOCH          = 2025-11-28T18:41:42.809280
MEAN_MOTION    = 14.38131463
ECCENTRICITY   = .001628
INCLINATION    = 74.0597
RA_OF_ASC_NODE = 204.5362
ARG_OF_PERICENTER = 317.6442
MEAN_ANOMALY   = 42.3454

EPHEMERIS_TYPE = 0
CLASSIFICATION_TYPE = U
NORAD_CAT_ID   = 8459
ELEMENT_SET_NO = 999
REV_AT_EPOCH   = 61736
BSTAR          = .95688E-4
MEAN_MOTION_DOT = .264E-5
MEAN_MOTION_DDOT = 0

CCSDS_OMM_VERS = 2.0
CREATION_DATE  = 
ORIGINATOR     = 

OBJECT_NAME    = SL-3 R/B
OBJECT_ID      = 1977-057B
CENTER_NAME    = EARTH
REF_FRAME      = TEME
TIME_SYSTEM    = UTC
MEAN_ELEMENT_THEORY = SGP/SGP4

EPOCH          = 2025-11-28T17:53:30.706656
MEAN_MOTION    = 15.42462518
ECCENTRICITY   = .0006528
INCLINATION    = 97.5684
RA_OF_ASC_NODE = 135.5338
ARG_OF_PERICENTER = 291.8559
MEAN_ANOMALY   = 68.1993

EPHEMERIS_TYPE = 0
CLASSIFICATION_TYPE = U
NORAD_CAT_ID   = 10114
ELEMENT_SET_NO = 999
REV_AT_EPOCH   = 65275
BSTAR          = .30164E-3
MEAN_MOTION_DOT = .12981E-3
MEAN_MOTION_DDOT = 0

CCSDS_OMM_VERS = 2.0
CREATION_DATE  = 
ORIGINATOR     = 

OBJECT_NAME    = SEASAT 1
OBJECT_ID      = 1978-064A
CENTER_NAME    = EARTH
REF_FRAME      = TEME
TIME_SYSTEM    = UTC
MEAN_ELEMENT_THEORY = SGP/SGP4

EPOCH          = 2025-11-28T15:20:31.024608
MEAN_MOTION    = 14.46035954
ECCENTRICITY   = .00019776
INCLINATION    = 108.0093
RA_OF_ASC_NODE = 273.4538
ARG_OF_PERICENTER = 251.1297
MEAN_ANOMALY   = 108.9635

EPHEMERIS_TYPE = 0
CLASSIFICATION_TYPE = U
NORAD_CAT_ID   = 10967
ELEMENT_SET_NO = 999
REV_AT_EPOCH   = 49190
BSTAR          = .16005302E-3
MEAN_MOTION_DOT = .434E-5
MEAN_MOTION_DDOT = 0

CCSDS_OMM_VERS = 2.0
CREATION_DATE  = 
ORIGINATOR     = 

OBJECT_NAME    = SL-14 R/B
OBJECT_ID      = 1979-011B
CENTER_NAME    = EARTH
REF_FRAME      = TEME
TIME_SYSTEM    = UTC
MEAN_ELEMENT_THEORY = SGP/SGP4

EPOCH          = 2025-11-28T15:14:12.236640
MEAN_MOTION    = 14.91743959
ECCENTRICITY   = .00171004
INCLINATION    = 82.5246
RA_OF_ASC_NODE = 192.4204
ARG_OF_PERICENTER = 39.2933
MEAN_ANOMALY   = 320.9524

EPHEMERIS_TYPE = 0
CLASSIFICATION_TYPE = U
NORAD_CAT_ID   = 11267
ELEMENT_SET_NO = 999
REV_AT_EPOCH   = 51371
BSTAR          = .57224075E-4
MEAN_MOTION_DOT = .603E-5
MEAN_MOTION_DDOT = 0

CCSDS_OMM_VERS = 2.0
CREATION_DATE  = 
ORIGINATOR     = 

OBJECT_NAME    = SL-8 R/B
OBJECT_ID      = 1979-089B
CENTER_NAME    = EARTH
REF_FRAME      = TEME
TIME_SYSTEM    = UTC
MEAN_ELEMENT_THEORY = SGP/SGP4

EPOCH          = 2025-11-28T19:47:56.729760
MEAN_MOTION    = 14.42268198
ECCENTRICITY   = .001454
INCLINATION    = 74.0687
RA_OF_ASC_NODE = 277.7319
ARG_OF_PERICENTER = 117.9872
MEAN_ANOMALY   = 242.2758

EPHEMERIS_TYPE = 0
CLASSIFICATION_TYPE = U
NORAD_CAT_ID   = 11574
ELEMENT_SET_NO = 999
REV_AT_EPOCH   = 42156
BSTAR          = .10184E-3
MEAN_MOTION_DOT = .31E-5
MEAN_MOTION_DDOT = 0

CCSDS_OMM_VERS = 2.0
CREATION_DATE  = 
ORIGINATOR     = 

OBJECT_NAME    = SL-14 R/B
OBJECT_ID      = 1980-005B
CENTER_NAME    = EARTH
REF_FRAME      = TEME
TIME_SYSTEM    = UTC
MEAN_ELEMENT_THEORY = SGP/SGP4

EPOCH          = 2025-11-28T13:57:27.001728
MEAN_MOTION    = 14.90764765
ECCENTRICITY   = .00168411
INCLINATION    = 82.5160
RA_OF_ASC_NODE = 43.1254
ARG_OF_PERICENTER = 136.9345
MEAN_ANOMALY   = 223.3196

EPHEMERIS_TYPE = 0
CLASSIFICATION_TYPE = U
NORAD_CAT_ID   = 11672
ELEMENT_SET_NO = 999
REV_AT_EPOCH   = 46142
BSTAR          = .69850686E-4
MEAN_MOTION_DOT = .713E-5
MEAN_MOTION_DDOT = 0

CCSDS_OMM_VERS = 2.0
CREATION_DATE  = 
ORIGINATOR     = 

OBJECT_NAME    = SL-8 R/B
OBJECT_ID      = 1981-003B
CENTER_NAME    = EARTH
REF_FRAME      = TEME
TIME_SYSTEM    = UTC
MEAN_ELEMENT_THEORY = SGP/SGP4

EPOCH          = 2025-11-28T14:11:47.516352
MEAN_MOTION    = 15.06363239
ECCENTRICITY   = .0281502
INCLINATION    = 82.9304
RA_OF_ASC_NODE = 23.2197
ARG_OF_PERICENTER = 169.1259
MEAN_ANOMALY   = 191.6238

EPHEMERIS_TYPE = 0
CLASSIFICATION_TYPE = U
NORAD_CAT_ID   = 12139
ELEMENT_SET_NO = 999
REV_AT_EPOCH   = 29943
BSTAR          = .58963456E-3
MEAN_MOTION_DOT = .21958E-3
MEAN_MOTION_DDOT = 0

CCSDS_OMM_VERS = 2.0
CREATION_DATE  = 
ORIGINATOR     = 

OBJECT_NAME    = SL-3 R/B
OBJECT_ID      = 1981-046B
CENTER_NAME    = EARTH
REF_FRAME      = TEME
TIME_SYSTEM    = UTC
MEAN_ELEMENT_THEORY = SGP/SGP4

EPOCH          = 2025-11-28T18:49:06.416256
MEAN_MOTION    = 15.39183092
ECCENTRICITY   = .0019894
INCLINATION    = 81.2337
RA_OF_ASC_NODE = 50.6253
ARG_OF_PERICENTER = 13.0870
MEAN_ANOMALY   = 347.0883

EPHEMERIS_TYPE = 0
CLASSIFICATION_TYPE = U
NORAD_CAT_ID   = 12465
ELEMENT_SET_NO = 999
REV_AT_EPOCH   = 42289
BSTAR          = .29581E-3
MEAN_MOTION_DOT = .11601E-3
MEAN_MOTION_DDOT = 0

CCSDS_OMM_VERS = 2.0
CREATION_DATE  = 
ORIGINATOR     = 

OBJECT_NAME    = SL-3 R/B
OBJECT_ID      = 1981-103B
CENTER_NAME    = EARTH
REF_FRAME      = TEME
TIME_SYSTEM    = UTC
MEAN_ELEMENT_THEORY = SGP/SGP4

EPOCH          = 2025-11-28T18:29:59.825184
MEAN_MOTION    = 15.19974940
ECCENTRICITY   = .0011227
INCLINATION    = 81.1589
RA_OF_ASC_NODE = 331.7124
ARG_OF_PERICENTER = 268.2454
MEAN_ANOMALY   = 91.7491

EPHEMERIS_TYPE = 0
CLASSIFICATION_TYPE = U
NORAD_CAT_ID   = 12904
ELEMENT_SET_NO = 999
REV_AT_EPOCH   = 95789
BSTAR          = .31031E-3
MEAN_MOTION_DOT = .6713E-4
MEAN_MOTION_DDOT = 0

CCSDS_OMM_VERS = 2.0
CREATION_DATE  = 
ORIGINATOR     = 

OBJECT_NAME    = SL-3 R/B
OBJECT_ID      = 1982-013B
CENTER_NAME    = EARTH
REF_FRAME      = TEME
TIME_SYSTEM    = UTC
MEAN_ELEMENT_THEORY = SGP/SGP4

EPOCH          = 2025-11-28T19:52:23.291040
MEAN_MOTION    = 15.20891528
ECCENTRICITY   = .0023258
INCLINATION    = 81.1740
RA_OF_ASC_NODE = 278.8909
ARG_OF_PERICENTER = 155.6486
MEAN_ANOMALY   = 204.5850

EPHEMERIS_TYPE = 0
CLASSIFICATION_TYPE = U
NORAD_CAT_ID   = 13068
ELEMENT_SET_NO = 999
REV_AT_EPOCH   = 38901
BSTAR          = .19552E-3
MEAN_MOTION_DOT = .4378E-4
MEAN_MOTION_DDOT = 0

CCSDS_OMM_VERS = 2.0
CREATION_DATE  = 
ORIGINATOR     = 

OBJECT_NAME    = SL-3 R/B
OBJECT_ID      = 1982-039B
CENTER_NAME    = EARTH
REF_FRAME      = TEME
TIME_SYSTEM    = UTC
MEAN_ELEMENT_THEORY = SGP/SGP4

EPOCH          = 2025-11-28T18:50:10.488768
MEAN_MOTION    = 15.09397689
ECCENTRICITY   = .0030761
INCLINATION    = 81.1747
RA_OF_ASC_NODE = 332.1486
ARG_OF_PERICENTER = 299.2519
MEAN_ANOMALY   = 60.5631

EPHEMERIS_TYPE = 0
CLASSIFICATION_TYPE = U
NORAD_CAT_ID   = 13154
ELEMENT_SET_NO = 999
REV_AT_EPOCH   = 36641
BSTAR          = .18619E-3
MEAN_MOTION_DOT = .303E-4
MEAN_MOTION_DDOT = 0

