ATLAS CENTAUR R/B       
1 06155U 72065B   25332.26500381  .00001158  00000+0  16193-3 0  9994
2 06155  34.9999 179.9855 0034466 237.8849 121.8504 14.77349419826253
SL-8 R/B                
1 08459U 75112B   25332.77896770  .00000264  00000+0  95688-4 0  9999
2 08459  74.0597 204.5362 0016280 317.6442  42.3454 14.38131463617365
SL-3 R/B                
1 10114U 77057B   25332.74549429  .00012981  00000+0  30164-3 0  9999
2 10114  97.5684 135.5338 0006528 291.8559  68.1993 15.42462518652755
SEASAT 1                
1 10967U 78064A   25332.63924797  .00000434  00000+0  16005-3 0  9995
2 10967 108.0093 273.4538 0001977 251.1297 108.9635 14.46035954491905
SL-14 R/B               
1 11267U 79011B   25332.63486385  .00000603  00000+0  57224-4 0  9995
2 11267  82.5246 192.4204 0017100  39.2933 320.9524 14.91743959513710
SL-8 R/B                
1 11574U 79089B   25332.82496215  .00000310  00000+0  10184-3 0  9993
2 11574  74.0687 277.7319 0014540 117.9872 242.2758 14.42268198421560
SL-14 R/B               
1 11672U 80005B   25332.58156252  .00000713  00000+0  69851-4 0  9992
2 11672  82.5160  43.1254 0016841 136.9345 223.3196 14.90764765461423
SL-8 R/B                
1 12139U 81003B   25332.59152218  .00021958  00000+0  58963-3 0  9994
2 12139  82.9304  23.2197 0281502 169.1259 191.6238 15.06363239299434
SL-3 R/B                
1 12465U 81046B   25332.78410204  .00011601  00000+0  29581-3 0  9994
2 12465  81.2337  50.6253 0019894  13.0870 347.0883 15.39183092422894
SL-3 R/B                
1 12904U 81103B   25332.77083131  .00006713  00000+0  31031-3 0  9991
2 12904  81.1589 331.7124 0011227 268.2454  91.7491 15.19974940957893
SL-3 R/B                
1 13068U 82013B   25332.82804735  .00004378  00000+0  19552-3 0  9990
2 13068  81.1740 278.8909 0023258 155.6486 204.5850 15.20891528389015
SL-3 R/B                
1 13154U 82039B   25332.78484362  .00003030  00000+0  18619-3 0  9996
2 13154  81.1747 332.1486 0030761 299.2519  60.5631 15.09397689366413
